$$SOE
2460728.500000000, A.D. 2025-Feb-22 00:00:00.0000, -3.839716264303102E+08, 2.029832543795343E+08, -2.888716565746876E+07,
2460735.500000000, A.D. 2025-Mar-01 00:00:00.0000, -3.889274584688033E+08, 1.946344316264297E+08, -2.680481657828692E+07,
2460742.500000000, A.D. 2025-Mar-08 00:00:00.0000, -3.936550305847812E+08, 1.861713778533663E+08, -2.470673628851269E+07,
2460749.500000000, A.D. 2025-Mar-15 00:00:00.0000, -3.981522373142446E+08, 1.775993781386828E+08, -2.259419862818771E+07,
2460756.500000000, A.D. 2025-Mar-22 00:00:00.0000, -4.024170738871564E+08, 1.689237316689638E+08, -2.046847556872366E+07,
2460763.500000000, A.D. 2025-Mar-29 00:00:00.0000, -4.064476357291027E+08, 1.601497497318335E+08, -1.833083729430678E+07,
2460770.500000000, A.D. 2025-Apr-05 00:00:00.0000, -4.102421163642634E+08, 1.512827546572954E+08, -1.618255237656220E+07,
2460777.500000000, A.D. 2025-Apr-12 00:00:00.0000, -4.137988056501494E+08, 1.423280798066402E+08, -1.402488785721461E+07,
2460784.500000000, A.D. 2025-Apr-19 00:00:00.0000, -4.171160885355000E+08, 1.332910697259837E+08, -1.185910929346521E+07,
2460791.500000000, A.D. 2025-Apr-26 00:00:00.0000, -4.201924440705746E+08, 1.241770802599363E+08, -9.686480806765921E+06,
2460798.500000000, A.D. 2025-May-03 00:00:00.0000, -4.230264445553861E+08, 1.149914786415745E+08, -7.508265142672777E+06,
2460805.500000000, A.D. 2025-May-10 00:00:00.0000, -4.256167547964172E+08, 1.057396435633158E+08, -5.325723742511749E+06,
2460812.500000000, A.D. 2025-May-17 00:00:00.0000, -4.279621314345753E+08, 9.642696518323307E+07, -3.140116832485434E+06,
2460819.500000000, A.D. 2025-May-24 00:00:00.0000, -4.300614221702492E+08, 8.705884500788675E+07, -9.527035495974682E+05,
2460826.500000000, A.D. 2025-May-31 00:00:00.0000, -4.319135644675139E+08, 7.764069595826030E+07, 1.235257883689404E+06,
2460833.500000000, A.D. 2025-Jun-07 00:00:00.0000, -4.335175841382692E+08, 6.817794381896611E+07, 3.422510072237916E+06,
2460840.500000000, A.D. 2025-Jun-14 00:00:00.0000, -4.348725961719670E+08, 5.867602939900827E+07, 5.607796611648735E+06,
2460847.500000000, A.D. 2025-Jun-21 00:00:00.0000, -4.359778065968773E+08, 4.914040812921873E+07, 7.789862124157300E+06,
2460854.500000000, A.D. 2025-Jun-28 00:00:00.0000, -4.368325122448648E+08, 3.957654885884496E+07, 9.967452025452500E+06,
2460861.500000000, A.D. 2025-Jul-05 00:00:00.0000, -4.374360999341723E+08, 2.998993400355067E+07, 1.213931233892063E+07,
2460868.500000000, A.D. 2025-Jul-12 00:00:00.0000, -4.377880462616563E+08, 2.038606023395453E+07, 1.430418960155987E+07,
2460875.500000000, A.D. 2025-Jul-19 00:00:00.0000, -4.378879178171890E+08, 1.077043912546410E+07, 1.646083079802093E+07,
2460882.500000000, A.D. 2025-Jul-26 00:00:00.0000, -4.377353716117153E+08, 1.148597709521114E+06, 1.860798329993894E+07,
2460889.500000000, A.D. 2025-Aug-02 00:00:00.0000, -4.373301556541485E+08, -8.473921055675618E+06, 2.074439480745182E+07,
2460896.500000000, A.D. 2025-Aug-09 00:00:00.0000, -4.366721096541582E+08, -1.809155791351211E+07, 2.286881329070478E+07,
2460903.500000000, A.D. 2025-Aug-16 00:00:00.0000, -4.357611657745115E+08, -2.769873710361354E+07, 2.497998692028692E+07,
2460910.500000000, A.D. 2025-Aug-23 00:00:00.0000, -4.345973491409591E+08, -3.728986631037826E+07, 2.707666396232776E+07,
2460917.500000000, A.D. 2025-Aug-30 00:00:00.0000, -4.331807777810670E+08, -4.685933605551950E+07, 2.915759266767626E+07,
2460924.500000000, A.D. 2025-Sep-06 00:00:00.0000, -4.315116634102204E+08, -5.640151753910013E+07, 3.122152136818637E+07,
2460931.500000000, A.D. 2025-Sep-13 00:00:00.0000, -4.295903147369888E+08, -6.591076141756614E+07, 3.326719873168824E+07,
2460938.500000000, A.D. 2025-Sep-20 00:00:00.0000, -4.274171400176919E+08, -7.538139916806780E+07, 3.529337374258141E+07,
2460945.500000000, A.D. 2025-Sep-27 00:00:00.0000, -4.249926478023832E+08, -8.480774393091041E+07, 3.729879556685834E+07,
2460952.500000000, A.D. 2025-Oct-04 00:00:00.0000, -4.223174478874689E+08, -9.418409029570484E+07, 3.928221353186622E+07,
2460959.500000000, A.D. 2025-Oct-11 00:00:00.0000, -4.193922528488414E+08, -1.035047139809597E+08, 4.124237717918638E+07,
2460966.500000000, A.D. 2025-Oct-18 00:00:00.0000, -4.162178798741680E+08, -1.127638716880419E+08, 4.317803634363319E+07,
2460973.500000000, A.D. 2025-Oct-25 00:00:00.0000, -4.127952527571360E+08, -1.219558011239841E+08, 4.508794124811246E+07,
2460980.500000000, A.D. 2025-Nov-01 00:00:00.0000, -4.091254040157021E+08, -1.310747211825760E+08, 4.697084261361720E+07,
2460987.500000000, A.D. 2025-Nov-08 00:00:00.0000, -4.052094771003285E+08, -1.401148323197423E+08, 4.882549178012328E+07,
2460994.500000000, A.D. 2025-Nov-15 00:00:00.0000, -4.010487285435546E+08, -1.490703171861853E+08, 5.065064082127751E+07,
2461001.500000000, A.D. 2025-Nov-22 00:00:00.0000, -3.966445296458121E+08, -1.579353413021941E+08, 5.244504263481164E+07,
2461008.500000000, A.D. 2025-Nov-29 00:00:00.0000, -3.919983678472066E+08, -1.667040526463443E+08, 5.420745111610112E+07,
2461015.500000000, A.D. 2025-Dec-06 00:00:00.0000, -3.871118500599327E+08, -1.753705803034728E+08, 5.593662161337368E+07,
2461022.500000000, A.D. 2025-Dec-13 00:00:00.0000, -3.819867075285210E+08, -1.839290355537785E+08, 5.763131135096617E+07,
2461029.500000000, A.D. 2025-Dec-20 00:00:00.0000, -3.766247987285839E+08, -1.923735143901033E+08, 5.929027958650273E+07,
2461036.500000000, A.D. 2025-Dec-27 00:00:00.0000, -3.710281113797308E+08, -2.006980988791136E+08, 6.091228781490698E+07,
2461043.500000000, A.D. 2026-Jan-03 00:00:00.0000, -3.651987650303321E+08, -2.088968579885026E+08, 6.249610010480727E+07,
2461050.500000000, A.D. 2026-Jan-10 00:00:00.0000, -3.591390141017718E+08, -2.169638485673749E+08, 6.404048350363024E+07,
2461057.500000000, A.D. 2026-Jan-17 00:00:00.0000, -3.528512511574544E+08, -2.248931165807843E+08, 6.554420848472299E+07,
2461064.500000000, A.D. 2026-Jan-24 00:00:00.0000, -3.463380103163618E+08, -2.326786985852121E+08, 6.700604943362173E+07,
2461071.500000000, A.D. 2026-Jan-31 00:00:00.0000, -3.396019707846186E+08, -2.403146234619078E+08, 6.842478517313765E+07,
2461078.500000000, A.D. 2026-Feb-07 00:00:00.0000, -3.326459604396134E+08, -2.477949144754211E+08, 6.979919951934564E+07,
2461085.500000000, A.D. 2026-Feb-14 00:00:00.0000, -3.254729592091069E+08, -2.551135916831999E+08, 7.112808184647380E+07,
2461092.500000000, A.D. 2026-Feb-21 00:00:00.0000, -3.180861018526054E+08, -2.622646741301905E+08, 7.241022767480534E+07,
2461099.500000000, A.D. 2026-Feb-28 00:00:00.0000, -3.104886812235057E+08, -2.692421806861960E+08, 7.364443947772554E+07,
2461106.500000000, A.D. 2026-Mar-07 00:00:00.0000, -3.026841540630091E+08, -2.760401314884604E+08, 7.482952773964575E+07,
2461113.500000000, A.D. 2026-Mar-14 00:00:00.0000, -2.946761465430539E+08, -2.826525523368404E+08, 7.596431182247704E+07,
2461120.500000000, A.D. 2026-Mar-21 00:00:00.0000, -2.864684577687765E+08, -2.890734791580738E+08, 7.704762071743302E+07,
2461127.500000000, A.D. 2026-Mar-28 00:00:00.0000, -2.780650632412810E+08, -2.952969615233952E+08, 7.807829395362993E+07,
2461134.500000000, A.D. 2026-Apr-04 00:00:00.0000, -2.694701188733521E+08, -3.013170661980020E+08, 7.905518264251141E+07,
2461141.500000000, A.D. 2026-Apr-11 00:00:00.0000, -2.606879652715934E+08, -3.071278810964886E+08, 7.997715060608019E+07,
2461148.500000000, A.D. 2026-Apr-18 00:00:00.0000, -2.517231321125062E+08, -3.127235196663908E+08, 8.084307557672641E+07,
2461155.500000000, A.D. 2026-Apr-25 00:00:00.0000, -2.425803425529918E+08, -3.180981257006893E+08, 8.165185046897227E+07,
2461162.500000000, A.D. 2026-May-02 00:00:00.0000, -2.332645176296286E+08, -3.232458786236690E+08, 8.240238472110265E+07,
2461169.500000000, A.D. 2026-May-09 00:00:00.0000, -2.237807805052274E+08, -3.281609993303748E+08, 8.309360569259022E+07,
2461176.500000000, A.D. 2026-May-16 00:00:00.0000, -2.141344601657137E+08, -3.328377564548377E+08, 8.372446009618828E+07,
2461183.500000000, A.D. 2026-May-23 00:00:00.0000, -2.043310944942782E+08, -3.372704720576090E+08, 8.429391554516751E+07,
2461190.500000000, A.D. 2026-May-30 00:00:00.0000, -1.943764347771832E+08, -3.414535264253035E+08, 8.480096243343401E+07,
2461197.500000000, A.D. 2026-Jun-06 00:00:00.0000, -1.842764519316280E+08, -3.453813652689000E+08, 8.524461591091314E+07,
2461204.500000000, A.D. 2026-Jun-13 00:00:00.0000, -1.740373407619741E+08, -3.490485091371579E+08, 8.562391763602515E+07,
2461211.500000000, A.D. 2026-Jun-20 00:00:00.0000, -1.636655227172477E+08, -3.524495621337969E+08, 8.593793759275717E+07,
2461218.500000000, A.D. 2026-Jun-27 00:00:00.0000, -1.531676488184009E+08, -3.555792202907943E+08, 8.618577610235381E+07,
2461225.500000000, A.D. 2026-Jul-04 00:00:00.0000, -1.425506027234039E+08, -3.584322803832636E+08, 8.636656596769866E+07,
2461232.500000000, A.D. 2026-Jul-11 00:00:00.0000, -1.318215036419685E+08, -3.610036493267288E+08, 8.647947471704423E+07,
2461239.500000000, A.D. 2026-Jul-18 00:00:00.0000, -1.209877089708012E+08, -3.632883541383588E+08, 8.652370694088279E+07,
2461246.500000000, A.D. 2026-Jul-25 00:00:00.0000, -1.100568165869102E+08, -3.652815524643841E+08, 8.649850671955621E+07,
2461253.500000000, A.D. 2026-Aug-01 00:00:00.0000, -9.903666671075150E+07, -3.669785437229429E+08, 8.640316013159035E+07,
2461260.500000000, A.D. 2026-Aug-08 00:00:00.0000, -8.793534308058457E+07, -3.683747808953212E+08, 8.623699781662671E+07,
2461267.500000000, A.D. 2026-Aug-15 00:00:00.0000, -7.676117297476405E+07, -3.694658825098846E+08, 8.599939758702649E+07,
2461274.500000000, A.D. 2026-Aug-22 00:00:00.0000, -6.552272679147417E+07, -3.702476435911223E+08, 8.568978725314030E+07,
2461281.500000000, A.D. 2026-Aug-29 00:00:00.0000, -5.422881942186820E+07, -3.707160469386752E+08, 8.530764775578658E+07,
2461288.500000000, A.D. 2026-Sep-05 00:00:00.0000, -4.288851122933045E+07, -3.708672775946454E+08, 8.485251617199260E+07,
$$EOE